{
    "links": {
        "self": "http://www.neowsapp.com/rest/v1/neo/3602526?api_key=iIulBulltgU6a56xZRHN4H3l9WmuAYTsLGpBGhQ2"
    },
    "id": "3602526",
    "neo_reference_id": "3602526",
    "name": "(2012 GB5)",
    "designation": "2012 GB5",
    "nasa_jpl_url": "http://ssd.jpl.nasa.gov/sbdb.cgi?sstr=3602526",
    "absolute_magnitude_h": 23.6,
    "estimated_diameter": {
        "kilometers": {
            "estimated_diameter_min": 0.0506471459,
            "estimated_diameter_max": 0.1132504611
        },
        "meters": {
            "estimated_diameter_min": 50.6471458835,
            "estimated_diameter_max": 113.2504610618
        },
        "miles": {
            "estimated_diameter_min": 0.0314706677,
            "estimated_diameter_max": 0.0703705522
        },
        "feet": {
            "estimated_diameter_min": 166.1651821003,
            "estimated_diameter_max": 371.5566426699
        }
    },
    "is_potentially_hazardous_asteroid": false,
    "close_approach_data": [
        {
            "close_approach_date": "2012-05-09",
            "close_approach_date_full": "2012-May-09 23:21",
            "epoch_date_close_approach": 1336605660000,
            "relative_velocity": {
                "kilometers_per_second": "11.1882090814",
                "kilometers_per_hour": "40277.5526931804",
                "miles_per_hour": "25026.9048942709"
            },
            "miss_distance": {
                "astronomical": "0.0581219454",
                "lunar": "22.6094367606",
                "kilometers": "8694919.232096298",
                "miles": "5402772.2809449924"
            },
            "orbiting_body": "Earth"
        }
    ],
    "orbital_data": {
        "orbit_id": "8",
        "orbit_determination_date": "2017-04-06 08:50:10",
        "first_observation_date": "2012-04-12",
        "last_observation_date": "2012-05-02",
        "data_arc_in_days": 20,
        "observations_used": 29,
        "orbit_uncertainty": "7",
        "minimum_orbit_intersection": ".0438516",
        "jupiter_tisserand_invariant": "3.471",
        "epoch_osculation": "2459000.5",
        "eccentricity": ".5755373975244252",
        "semi_major_axis": "2.146011449120534",
        "inclination": "5.155154593626426",
        "ascending_node_longitude": "196.9660807765701",
        "orbital_period": "1148.27650510034",
        "perihelion_distance": ".9109016046360813",
        "perihelion_argument": "72.72452307780561",
        "aphelion_distance": "3.381121293604986",
        "perihelion_time": "2459533.792095013069",
        "mean_anomaly": "192.8058151917612",
        "mean_motion": ".313513337946893",
        "equinox": "J2000",
        "orbit_class": {
            "orbit_class_type": "APO",
            "orbit_class_description": "Near-Earth asteroid orbits which cross the Earth’s orbit similar to that of 1862 Apollo",
            "orbit_class_range": "a (semi-major axis) > 1.0 AU; q (perihelion) < 1.017 AU"
        }
    },
    "is_sentry_object": false
}